SWARM A                 
1 39452U 13067B   26188.47713667  .00007671  00000+0  12983-3 0  9992
2 39452  87.3308  48.6985 0003267  95.7847 264.3787 15.51353400709394
SWARM C                 
1 39453U 13067C   26188.47703944  .00007699  00000+0  13031-3 0  9995
2 39453  87.3308  47.2796 0003263  96.0604 264.1029 15.51352695709359
BRITE-CA1 (TORONTO)     
1 40020U 14033L   26187.87747464  .00000913  00000+0  14459-3 0  9996
2 40020  97.9763 316.4452 0077848 213.0292 146.6041 14.72711123645115
OCO 2                   
1 40059U 14035A   26188.55023074  .00000334  00000+0  84192-4 0  9999
2 40059  98.2020 129.5337 0001475  81.8823 278.2542 14.57128194639019
BRITE-PL2 (HEWELIUSZ)   
1 40119U 14049B   26188.25660079  .00001956  00000+0  18560-3 0  9996
2 40119  97.9109 300.4136 0014883  47.9370 312.3113 14.94668605644448
MMS 1                   
1 40482U 15011A   26188.58335648 -.00000660  00000+0  00000+0 0  9994
2 40482  72.4357 348.5541 8305835 167.9209 219.1384  0.28325733  1332
MMS 2                   
1 40483U 15011B   26188.58335648 -.00000660  00000+0  00000+0 0  9995
2 40483  72.4396 348.5531 8308650 167.9239 219.1271  0.28325686  1338
MMS 3                   
1 40484U 15011C   26188.58335648 -.00000659  00000+0  00000+0 0  9994
2 40484  72.4394 348.5649 8307018 167.9315 219.1012  0.28325665  1306
MMS 4                   
1 40485U 15011D   26188.58335648 -.00000659  00000+0  00000+0 0  9995
2 40485  72.4352 348.5483 8306953 167.9413 219.0954  0.28325712  1366
ASTROSAT                
1 40930U 15052A   26187.06238198  .00001814  00000+0  13877-3 0  9992
2 40930   5.9982  19.4758 0008506 302.4435  57.4871 14.82542388582636
DAMPE                   
1 41173U 15078A   26188.62823563  .00000869  00000+0  31723-4 0  9999
2 41173  97.4563 194.1962 0012453  12.1228 348.0310 15.30839791587673
PISAT                   
1 41784U 16059B   26188.44224602  .00000817  00000+0  14640-3 0  9997
2 41784  97.8185 188.0251 0030018 138.5610 221.7881 14.69020153522712
HXMT (HUIYAN)           
1 42758U 17034A   26188.59051266  .00003122  00000+0  15754-3 0  9992
2 42758  43.0143  69.4167 0032766 274.4367  85.2738 15.18641462500762
FLYING LAPTOP           
1 42831U 17042G   26188.64853111  .00003013  00000+0  23787-3 0  9992
2 42831  97.4786 343.4071 0019902  56.6434 303.6692 15.01280337489529
ZHANGHENG 1-01 (CSES-1) 
1 43194U 18015C   26188.59986988  .00005141  00000+0  23353-3 0  9992
2 43194  97.6891 354.6684 0018137 191.8559 168.2252 15.21092597467742
SALSAT                  
1 46495U 20068K   26187.96288697  .00005977  00000+0  20799-3 0  9990
2 46495  97.8858 192.2352 0008388 224.1445 135.9125 15.30092809318384
IXPE                    
1 49954U 21121A   26188.58335648  .00007629  00000+0  39568-3 0  9992
2 49954   0.2296 163.0863 0006740  25.6543 255.8811 15.10445546  5786
